[{"OBJECT_NAME":"STARLINK-35124","OBJECT_ID":"2025-198V","EPOCH":"2026-03-09T19:40:33.340512","MEAN_MOTION":15.30170001,"ECCENTRICITY":0.0001321,"INCLINATION":53.1587,"RA_OF_ASC_NODE":270.1344,"ARG_OF_PERICENTER":60.2802,"MEAN_ANOMALY":299.833,"EPHEMERIS_TYPE":0,"CLASSIFICATION_TYPE":"U","NORAD_CAT_ID":65511,"ELEMENT_SET_NO":999,"REV_AT_EPOCH":2863,"BSTAR":0.00014744446,"MEAN_MOTION_DOT":4.006e-5,"MEAN_MOTION_DDOT":0},{"OBJECT_NAME":"COSMOS 1975","OBJECT_ID":"1988-093A","EPOCH":"2026-03-09T14:15:08.474112","MEAN_MOTION":15.28069249,"ECCENTRICITY":0.0012117,"INCLINATION":82.5181,"RA_OF_ASC_NODE":117.7814,"ARG_OF_PERICENTER":163.8427,"MEAN_ANOMALY":196.3201,"EPHEMERIS_TYPE":0,"CLASSIFICATION_TYPE":"U","NORAD_CAT_ID":19573,"ELEMENT_SET_NO":999,"REV_AT_EPOCH":1939,"BSTAR":0.0002787,"MEAN_MOTION_DOT":7.676e-5,"MEAN_MOTION_DDOT":0}]
